{
  "norad_id": 65809,
  "name": "STARLINK-35289",
  "history": [
    {
      "epoch": "2026-03-28T13:55:01.149024Z",
      "apogee_km": 550.8777428760104,
      "perigee_km": 548.130240458715,
      "latitude_deg": -4.671675693341956e-05,
      "longitude_deg": -83.15796749954814,
      "height_km": 552.2969479919664,
      "semi_major_axis_km": 6927.640991667362,
      "eccentricity": 0.0001983,
      "inclination_deg": 97.6024,
      "raan_deg": 311.5951,
      "arg_perigee_deg": 78.7068,
      "mean_anomaly_deg": 281.4381,
      "mean_motion_rev_day": 15.05652335
    },
    {
      "epoch": "2026-03-29T04:16:18.926112Z",
      "apogee_km": 550.8408925390531,
      "perigee_km": 548.1127982067446,
      "latitude_deg": 7.3704239752830556e-06,
      "longitude_deg": 61.51801768893905,
      "height_km": 552.243970736806,
      "semi_major_axis_km": 6927.613845372899,
      "eccentricity": 0.0001969,
      "inclination_deg": 97.6023,
      "raan_deg": 312.1847,
      "arg_perigee_deg": 77.5147,
      "mean_anomaly_deg": 282.63,
      "mean_motion_rev_day": 15.05661185
    },
    {
      "epoch": "2026-03-30T04:11:48.099264Z",
      "apogee_km": 550.7835896342058,
      "perigee_km": 548.117299778487,
      "latitude_deg": 5.0448920579861414e-05,
      "longitude_deg": 62.646302387073305,
      "height_km": 552.187554394006,
      "semi_major_axis_km": 6927.587444706346,
      "eccentricity": 0.00019244,
      "inclination_deg": 97.6023,
      "raan_deg": 313.1671,
      "arg_perigee_deg": 75.8898,
      "mean_anomaly_deg": 284.2543,
      "mean_motion_rev_day": 15.05669792
    },
    {
      "epoch": "2026-03-30T13:45:59.630976Z",
      "apogee_km": 550.786096160311,
      "perigee_km": 548.094039711712,
      "latitude_deg": 2.1055503411247476e-05,
      "longitude_deg": -80.90186264269121,
      "height_km": 552.2048277230238,
      "semi_major_axis_km": 6927.577067936011,
      "eccentricity": 0.0001943,
      "inclination_deg": 97.6023,
      "raan_deg": 313.56,
      "arg_perigee_deg": 77.2389,
      "mean_anomaly_deg": 282.9055,
      "mean_motion_rev_day": 15.05673175
    },
    {
      "epoch": "2026-03-30T15:21:41.523552Z",
      "apogee_km": 550.7940904978414,
      "perigee_km": 548.0732178477092,
      "latitude_deg": -7.112047880729589e-05,
      "longitude_deg": -104.82630582726146,
      "height_km": 552.1847963535375,
      "semi_major_axis_km": 6927.570654172775,
      "eccentricity": 0.00019638,
      "inclination_deg": 97.6025,
      "raan_deg": 313.6256,
      "arg_perigee_deg": 76.7888,
      "mean_anomaly_deg": 283.3557,
      "mean_motion_rev_day": 15.05675266
    },
    {
      "epoch": "2026-03-31T21:39:59.469696Z",
      "apogee_km": 551.5190197611464,
      "perigee_km": 547.4594307931338,
      "latitude_deg": 4.0500346366172115e-07,
      "longitude_deg": 160.59842925037654,
      "height_km": 552.660274503542,
      "semi_major_axis_km": 6927.626225277139,
      "eccentricity": 0.000293,
      "inclination_deg": 97.602,
      "raan_deg": 314.8697,
      "arg_perigee_deg": 93.1281,
      "mean_anomaly_deg": 267.0281,
      "mean_motion_rev_day": 15.05657149
    },
    {
      "epoch": "2026-04-01T21:35:29.506848Z",
      "apogee_km": 550.9870523241125,
      "perigee_km": 548.0067842124736,
      "latitude_deg": 5.7224351946651015e-05,
      "longitude_deg": 161.72380289433437,
      "height_km": 552.6787923094212,
      "semi_major_axis_km": 6927.633918268293,
      "eccentricity": 0.0002151,
      "inclination_deg": 97.6021,
      "raan_deg": 315.8528,
      "arg_perigee_deg": 94.6255,
      "mean_anomaly_deg": 265.5218,
      "mean_motion_rev_day": 15.05654641
    },
    {
      "epoch": "2026-04-02T21:30:59.316768Z",
      "apogee_km": 551.0827132565628,
      "perigee_km": 547.8609594911195,
      "latitude_deg": 8.281111790684888e-05,
      "longitude_deg": 162.84932957894083,
      "height_km": 552.5420276276932,
      "semi_major_axis_km": 6927.608836373841,
      "eccentricity": 0.00023253,
      "inclination_deg": 97.6029,
      "raan_deg": 316.8351,
      "arg_perigee_deg": 90.3148,
      "mean_anomaly_deg": 269.8346,
      "mean_motion_rev_day": 15.05662818
    },
    {
      "epoch": "2026-04-03T15:03:41.182272Z",
      "apogee_km": 551.1542189352349,
      "perigee_km": 547.8040237789464,
      "latitude_deg": -1.4924825413885572e-05,
      "longitude_deg": -100.3254430340127,
      "height_km": 552.6575598591769,
      "semi_major_axis_km": 6927.61612135709,
      "eccentricity": 0.0002418,
      "inclination_deg": 97.6019,
      "raan_deg": 317.5553,
      "arg_perigee_deg": 94.0117,
      "mean_anomaly_deg": 266.1386,
      "mean_motion_rev_day": 15.05660443
    },
    {
      "epoch": "2026-04-04T21:21:59.678784Z",
      "apogee_km": 551.1903416081859,
      "perigee_km": 547.8636773508342,
      "latitude_deg": 2.180346376126903e-05,
      "longitude_deg": 165.09799462673146,
      "height_km": 552.5574256351872,
      "semi_major_axis_km": 6927.664009479509,
      "eccentricity": 0.0002401,
      "inclination_deg": 97.6025,
      "raan_deg": 318.8004,
      "arg_perigee_deg": 88.9398,
      "mean_anomaly_deg": 271.2104,
      "mean_motion_rev_day": 15.05644831
    },
    {
      "epoch": "2026-04-05T13:18:59.920416Z",
      "apogee_km": 551.1974336287076,
      "perigee_km": 547.8366900902183,
      "latitude_deg": 3.42634209284271e-05,
      "longitude_deg": -74.15346090576296,
      "height_km": 552.587819301999,
      "semi_major_axis_km": 6927.654061859463,
      "eccentricity": 0.00024256,
      "inclination_deg": 97.6023,
      "raan_deg": 319.455,
      "arg_perigee_deg": 90.3271,
      "mean_anomaly_deg": 269.8234,
      "mean_motion_rev_day": 15.05648074
    },
    {
      "epoch": "2026-04-05T14:54:41.995296Z",
      "apogee_km": 551.232534645419,
      "perigee_km": 547.8185825365463,
      "latitude_deg": -5.786103536440428e-06,
      "longitude_deg": -98.0788728853327,
      "height_km": 552.5899193444966,
      "semi_major_axis_km": 6927.662558590982,
      "eccentricity": 0.0002464,
      "inclination_deg": 97.6022,
      "raan_deg": 319.5204,
      "arg_perigee_deg": 90.1095,
      "mean_anomaly_deg": 270.0414,
      "mean_motion_rev_day": 15.05645304
    },
    {
      "epoch": "2026-04-06T03:40:18.037920Z",
      "apogee_km": 551.2123819732851,
      "perigee_km": 547.8016257244299,
      "latitude_deg": 2.0738237940141128e-05,
      "longitude_deg": 70.52090987053037,
      "height_km": 552.5605302643844,
      "semi_major_axis_km": 6927.644003848857,
      "eccentricity": 0.00024617,
      "inclination_deg": 97.6023,
      "raan_deg": 320.0444,
      "arg_perigee_deg": 89.7455,
      "mean_anomaly_deg": 270.4054,
      "mean_motion_rev_day": 15.05651353
    },
    {
      "epoch": "2026-04-07T21:08:29.774688Z",
      "apogee_km": 551.3511230554259,
      "perigee_km": 547.6406828725985,
      "latitude_deg": -3.2824354612531365e-05,
      "longitude_deg": 168.4720997159711,
      "height_km": 552.4838771203483,
      "semi_major_axis_km": 6927.632902964012,
      "eccentricity": 0.0002678,
      "inclination_deg": 97.602,
      "raan_deg": 321.7476,
      "arg_perigee_deg": 87.7529,
      "mean_anomaly_deg": 272.4004,
      "mean_motion_rev_day": 15.05654972
    },
    {
      "epoch": "2026-04-08T14:41:11.756832Z",
      "apogee_km": 551.3763403376206,
      "perigee_km": 547.6247475020873,
      "latitude_deg": 2.2492488160894964e-05,
      "longitude_deg": -94.70328280827484,
      "height_km": 552.494937177028,
      "semi_major_axis_km": 6927.637543919854,
      "eccentricity": 0.00027077,
      "inclination_deg": 97.6026,
      "raan_deg": 322.4677,
      "arg_perigee_deg": 87.9763,
      "mean_anomaly_deg": 272.1774,
      "mean_motion_rev_day": 15.05653459
    },
    {
      "epoch": "2026-04-09T13:01:00.895872Z",
      "apogee_km": 551.6485464051384,
      "perigee_km": 547.5196246381684,
      "latitude_deg": -4.359738770916063e-05,
      "longitude_deg": -69.65809631962667,
      "height_km": 552.4395660794562,
      "semi_major_axis_km": 6927.721085521654,
      "eccentricity": 0.000298,
      "inclination_deg": 97.6017,
      "raan_deg": 323.3847,
      "arg_perigee_deg": 84.3113,
      "mean_anomaly_deg": 275.8453,
      "mean_motion_rev_day": 15.05626224
    },
    {
      "epoch": "2026-04-10T12:56:31.614720Z",
      "apogee_km": 551.567610070002,
      "perigee_km": 547.5093777656639,
      "latitude_deg": -8.16394742558835e-05,
      "longitude_deg": -68.53646212345566,
      "height_km": 551.6137308435057,
      "semi_major_axis_km": 6927.675493917833,
      "eccentricity": 0.0002929,
      "inclination_deg": 97.6025,
      "raan_deg": 324.3669,
      "arg_perigee_deg": 60.944,
      "mean_anomaly_deg": 299.2079,
      "mean_motion_rev_day": 15.05641087
    },
    {
      "epoch": "2026-04-11T14:27:43.782048Z",
      "apogee_km": 551.4472874900339,
      "perigee_km": 547.5747322525158,
      "latitude_deg": 2.600865823400133e-06,
      "longitude_deg": -91.33744360999671,
      "height_km": 551.5358473123451,
      "semi_major_axis_km": 6927.648009871275,
      "eccentricity": 0.0002795,
      "inclination_deg": 97.6026,
      "raan_deg": 325.4147,
      "arg_perigee_deg": 57.6453,
      "mean_anomaly_deg": 302.5044,
      "mean_motion_rev_day": 15.05650047
    },
    {
      "epoch": "2026-04-12T12:47:31.783200Z",
      "apogee_km": 551.3488903317575,
      "perigee_km": 547.6704485032296,
      "latitude_deg": 5.9952860273095074e-05,
      "longitude_deg": -66.2876174402783,
      "height_km": 551.5142066108352,
      "semi_major_axis_km": 6927.646669417493,
      "eccentricity": 0.00026549,
      "inclination_deg": 97.6026,
      "raan_deg": 326.3316,
      "arg_perigee_deg": 54.9274,
      "mean_anomaly_deg": 305.2202,
      "mean_motion_rev_day": 15.05650484
    }
  ]
}